{
  "type": "FeatureCollection",
  "features": [
    {
      "type": "Feature",
      "properties": {
        "norad_id": 41877,
        "name": "RESOURCESAT-2A",
        "group": "resource",
        "lat": 2.8551891873552306,
        "lon": 48.27568900203608,
        "alt_km": 822.1818669284539,
        "timestamp": "2025-12-04T19:33:59.288815+00:00",
        "meta_object_name": "RESOURCESAT-2A",
        "meta_object_id": "2016-074A",
        "meta_epoch": "2025-12-04T07:43:42.748320",
        "meta_mean_motion": 14.21594065,
        "meta_eccentricity": 0.00011581,
        "meta_inclination": 98.7767,
        "meta_ra_of_asc_node": 48.2268,
        "meta_arg_of_pericenter": 296.8341,
        "meta_mean_anomaly": 63.2718,
        "meta_ephemeris_type": 0,
        "meta_classification_type": "U",
        "meta_norad_cat_id": 41877,
        "meta_element_set_no": 999,
        "meta_rev_at_epoch": 46661,
        "meta_bstar": 0.00018101707,
        "meta_mean_motion_dot": 3.52e-06,
        "meta_mean_motion_ddot": 0,
        "tle_line1": "1 41877U 16074A   25338.32202255  .00000352  00000+0  18102-3 0  9991",
        "tle_line2": "2 41877  98.7767  48.2268 0001158 296.8341  63.2718 14.21594065466618"
      },
      "geometry": {
        "type": "Point",
        "coordinates": [
          48.27568900203608,
          2.8551891873552306
        ]
      }
    },
    {
      "type": "Feature",
      "properties": {
        "norad_id": 41948,
        "name": "CARTOSAT-2D",
        "group": "resource",
        "lat": 68.6091481326964,
        "lon": -124.07838086782118,
        "alt_km": 500.7416769295969,
        "timestamp": "2025-12-04T19:33:59.288825+00:00",
        "meta_object_name": "CARTOSAT-2D",
        "meta_object_id": "2017-008A",
        "meta_epoch": "2025-12-04T08:01:08.749056",
        "meta_mean_motion": 15.19363993,
        "meta_eccentricity": 0.00049467,
        "meta_inclination": 97.4401,
        "meta_ra_of_asc_node": 35.9594,
        "meta_arg_of_pericenter": 195.4813,
        "meta_mean_anomaly": 164.6272,
        "meta_ephemeris_type": 0,
        "meta_classification_type": "U",
        "meta_norad_cat_id": 41948,
        "meta_element_set_no": 999,
        "meta_rev_at_epoch": 48799,
        "meta_bstar": 3.131422e-06,
        "meta_mean_motion_dot": -1e-08,
        "meta_mean_motion_ddot": 0,
        "tle_line1": "1 41948U 17008A   25338.33412904 -.00000001  00000+0  31314-5 0  9997",
        "tle_line2": "2 41948  97.4401  35.9594 0004946 195.4813 164.6272 15.19363993487996"
      },
      "geometry": {
        "type": "Point",
        "coordinates": [
          -124.07838086782118,
          68.6091481326964
        ]
      }
    },
    {
      "type": "Feature",
      "properties": {
        "norad_id": 42063,
        "name": "SENTINEL-2B",
        "group": "resource",
        "lat": 67.45871100943363,
        "lon": 30.061379478826993,
        "alt_km": 781.7165973624988,
        "timestamp": "2025-12-04T19:33:59.288834+00:00",
        "meta_object_name": "SENTINEL-2B",
        "meta_object_id": "2017-013A",
        "meta_epoch": "2025-12-04T07:29:47.535072",
        "meta_mean_motion": 14.30811045,
        "meta_eccentricity": 0.00011189,
        "meta_inclination": 98.5726,
        "meta_ra_of_asc_node": 50.8764,
        "meta_arg_of_pericenter": 98.1992,
        "meta_mean_anomaly": 261.9318,
        "meta_ephemeris_type": 0,
        "meta_classification_type": "U",
        "meta_norad_cat_id": 42063,
        "meta_element_set_no": 999,
        "meta_rev_at_epoch": 45677,
        "meta_bstar": 0.00015179396,
        "meta_mean_motion_dot": 3.54e-06,
        "meta_mean_motion_ddot": 0,
        "tle_line1": "1 42063U 17013A   25338.31235573  .00000354  00000+0  15179-3 0  9994",
        "tle_line2": "2 42063  98.5726  50.8764 0001118  98.1992 261.9318 14.30811045456779"
      },
      "geometry": {
        "type": "Point",
        "coordinates": [
          30.061379478826993,
          67.45871100943363
        ]
      }
    },
    {
      "type": "Feature",
      "properties": {
        "norad_id": 42767,
        "name": "CARTOSAT-2E",
        "group": "resource",
        "lat": 19.130567075345322,
        "lon": 33.90120190746157,
        "alt_km": 508.80769033030083,
        "timestamp": "2025-12-04T19:33:59.288842+00:00",
        "meta_object_name": "CARTOSAT-2E",
        "meta_object_id": "2017-036C",
        "meta_epoch": "2025-12-04T08:24:58.419360",
        "meta_mean_motion": 15.19189804,
        "meta_eccentricity": 0.00022621,
        "meta_inclination": 97.4574,
        "meta_ra_of_asc_node": 36.0468,
        "meta_arg_of_pericenter": 281.4074,
        "meta_mean_anomaly": 78.6906,
        "meta_ephemeris_type": 0,
        "meta_classification_type": "U",
        "meta_norad_cat_id": 42767,
        "meta_element_set_no": 999,
        "meta_rev_at_epoch": 46856,
        "meta_bstar": 0.00058049619,
        "meta_mean_motion_dot": 0.00012157,
        "meta_mean_motion_ddot": 0,
        "tle_line1": "1 42767U 17036C   25338.35067615  .00012157  00000+0  58050-3 0  9993",
        "tle_line2": "2 42767  97.4574  36.0468 0002262 281.4074  78.6906 15.19189804468560"
      },
      "geometry": {
        "type": "Point",
        "coordinates": [
          33.90120190746157,
          19.130567075345322
        ]
      }
    },
    {
      "type": "Feature",
      "properties": {
        "norad_id": 42920,
        "name": "FORMOSAT-5",
        "group": "resource",
        "lat": -35.83226900397053,
        "lon": -132.71969047205224,
        "alt_km": 730.6892951074187,
        "timestamp": "2025-12-04T19:33:59.288852+00:00",
        "meta_object_name": "FORMOSAT-5",
        "meta_object_id": "2017-049A",
        "meta_epoch": "2025-12-04T06:59:14.554752",
        "meta_mean_motion": 14.5099774,
        "meta_eccentricity": 0.00102626,
        "meta_inclination": 98.2462,
        "meta_ra_of_asc_node": 52.7774,
        "meta_arg_of_pericenter": 323.825,
        "meta_mean_anomaly": 36.225,
        "meta_ephemeris_type": 0,
        "meta_classification_type": "U",
        "meta_norad_cat_id": 42920,
        "meta_element_set_no": 999,
        "meta_rev_at_epoch": 43841,
        "meta_bstar": 0.00015149193,
        "meta_mean_motion_dot": 5.55e-06,
        "meta_mean_motion_ddot": 0,
        "tle_line1": "1 42920U 17049A   25338.29114068  .00000555  00000+0  15149-3 0  9997",
        "tle_line2": "2 42920  98.2462  52.7774 0010262 323.8250  36.2250 14.50997740438410"
      },
      "geometry": {
        "type": "Point",
        "coordinates": [
          -132.71969047205224,
          -35.83226900397053
        ]
      }
    },
    {
      "type": "Feature",
      "properties": {
        "norad_id": 42969,
        "name": "SENTINEL-5P",
        "group": "resource",
        "lat": 66.77242995689093,
        "lon": -103.62935022098523,
        "alt_km": 819.8010679734598,
        "timestamp": "2025-12-04T19:33:59.288861+00:00",
        "meta_object_name": "SENTINEL-5P",
        "meta_object_id": "2017-064A",
        "meta_epoch": "2025-12-04T07:24:13.371840",
        "meta_mean_motion": 14.19514176,
        "meta_eccentricity": 9.451e-05,
        "meta_inclination": 98.777,
        "meta_ra_of_asc_node": 276.9679,
        "meta_arg_of_pericenter": 85.9815,
        "meta_mean_anomaly": 274.1469,
        "meta_ephemeris_type": 0,
        "meta_classification_type": "U",
        "meta_norad_cat_id": 42969,
        "meta_element_set_no": 999,
        "meta_rev_at_epoch": 42191,
        "meta_bstar": 0.00010612809,
        "meta_mean_motion_dot": 1.79e-06,
        "meta_mean_motion_ddot": 0,
        "tle_line1": "1 42969U 17064A   25338.30848810  .00000179  00000+0  10613-3 0  9991",
        "tle_line2": "2 42969  98.7770 276.9679 0000945  85.9815 274.1469 14.19514176421919"
      },
      "geometry": {
        "type": "Point",
        "coordinates": [
          -103.62935022098523,
          66.77242995689093
        ]
      }
    },
    {
      "type": "Feature",
      "properties": {
        "norad_id": 42987,
        "name": "SKYSAT-C11",
        "group": "resource",
        "lat": 33.92651346324503,
        "lon": -58.860856923305576,
        "alt_km": 423.04904662306944,
        "timestamp": "2025-12-04T19:33:59.288871+00:00",
        "meta_object_name": "SKYSAT-C11",
        "meta_object_id": "2017-068A",
        "meta_epoch": "2025-12-04T08:04:18.175008",
        "meta_mean_motion": 15.46918857,
        "meta_eccentricity": 9.371e-05,
        "meta_inclination": 97.4136,
        "meta_ra_of_asc_node": 115.6241,
        "meta_arg_of_pericenter": 111.7311,
        "meta_mean_anomaly": 248.4038,
        "meta_ephemeris_type": 0,
        "meta_classification_type": "U",
        "meta_norad_cat_id": 42987,
        "meta_element_set_no": 999,
        "meta_rev_at_epoch": 45301,
        "meta_bstar": 0.00086033511,
        "meta_mean_motion_dot": 0.00043399,
        "meta_mean_motion_ddot": 0,
        "tle_line1": "1 42987U 17068A   25338.33632147  .00043399  00000+0  86034-3 0  9993",
        "tle_line2": "2 42987  97.4136 115.6241 0000937 111.7311 248.4038 15.46918857453012"
      },
      "geometry": {
        "type": "Point",
        "coordinates": [
          -58.860856923305576,
          33.92651346324503
        ]
      }
    }
  ]
}